SCD 1                   
1 22490U 93009B   26192.95210669  .00000301  00000+0  31799-4 0  9992
2 22490  24.9702  54.6654 0042002  40.3337  87.5759 14.46127932764705
TECHSAT 1B (GO-32)      
1 25397U 98043D   26192.93037107  .00000020  00000+0  28845-4 0  9992
2 25397  99.0082 186.3145 0002096 119.6916 240.4471 14.24432954454850
SCD 2                   
1 25504U 98060A   26192.32589185  .00000293  00000+0  31159-4 0  9996
2 25504  24.9954 283.2998 0016868  19.0312  25.2104 14.45534120463823
DLR-TUBSAT              
1 25757U 99029B   26192.95609322  .00000023  00000+0  17668-4 0  9997
2 25757  98.6709 189.2765 0012971 275.5140  84.4575 14.52432878436841
TERRA                   
1 25994U 99068A   26192.94348641  .00000205  00000+0  50661-4 0  9998
2 25994  97.9443 241.5066 0003279 129.0892 284.3550 14.61122138413221
MAROC-TUBSAT            
1 27004U 01056D   26192.92191740 -.00000019  00000+0  31514-4 0  9996
2 27004  99.8095  10.2491 0020627  80.1620  85.6686 13.70263462229574
AQUA                    
1 27424U 02022A   26192.95848567  .00000405  00000+0  90228-4 0  9990
2 27424  98.4293 162.7390 0000830 107.2850 288.6762 14.62194286286893
SHIYAN-1 (SY-1)         
1 28220U 04012A   26192.77436816  .00008284  00000+0  25129-3 0  9996
2 28220  97.8693 272.4503 0004078 291.7953  68.2854 15.34395437214864
AURA                    
1 28376U 04026A   26192.90937096  .00000409  00000+0  92512-4 0  9996
2 28376  98.3429 149.5696 0001273  92.4619 267.6727 14.61365046169826
IRS-P5 (CARTOSAT-1)     
1 28649U 05017A   26192.63949595  .00000622  00000+0  67981-4 0  9996
2 28649  97.5306 214.5947 0001576  56.0497 304.0872 14.91111805147460
SINAH 1                 
1 28893U 05043D   26192.92952773  .00000157  00000+0  39127-4 0  9994
2 28893  98.2889 327.4012 0014151 193.8296 166.2520 14.64174290104145
RESURS-DK 1             
1 29228U 06021A   26192.62498360  .00001011  00000+0  62717-4 0  9999
2 29228  69.9312 276.2899 0006915 275.2250  84.8127 15.13311404106271
ARIRANG-2 (KOMPSAT-2)   
1 29268U 06031A   26192.97363617  .00000299  00000+0  64671-4 0  9996
2 29268  97.8315  16.2223 0014543   1.2267 158.5301 14.64675079 65107
LAPAN-TUBSAT            
1 29709U 07001A   26192.96720748  .00000944  00000+0  11453-3 0  9991
2 29709  98.1353 192.7505 0013600 103.0579 257.2154 14.85977282 54831
HAIYANG-1B              
1 31113U 07010A   26192.82658767  .00000040  00000+0  31073-4 0  9997
2 31113  98.3512 173.7181 0014547 125.1075 235.1475 14.31032783  4169
COSMO-SKYMED 1          
1 31598U 07023A   26192.93060557  .00001327  00000+0  11988-3 0  9995
2 31598  97.8843  24.9957 0001159 101.3053 258.8299 14.97210019 33498
TERRASAR-X              
1 31698U 07026A   26188.47915537  .00000240  00000+0  14624-4 0  9994
2 31698  97.4461 195.8972 0001878  86.9540 273.1909 15.19153986 56300
WORLDVIEW-1 (WV-1)      
1 32060U 07041A   26192.90766570  .00003492  00000+0  14482-3 0  9992
2 32060  97.3896 312.3033 0001222 224.2310 135.8830 15.24535973 46643
YAOGAN-3                
1 32289U 07055A   26192.96108179  .00001213  00000+0  12881-3 0  9991
2 32289  97.8150 222.5933 0001512  81.2747 278.8642 14.90872426  9560
COSMO-SKYMED 2          
1 32376U 07059A   26192.93739826  .00000199  00000+0  31534-4 0  9997
2 32376  97.8892  16.1771 0001436  93.3210 266.8167 14.82148982  5672
RADARSAT-2              
1 32382U 07061A   26192.94744351 -.00000149  00000+0 -40833-4 0  9996
2 32382  98.5785 199.5259 0001322  85.4158 274.7176 14.29982215969495
CARTOSAT-2A             
1 32783U 08021A   26192.93906755 -.00000088  00000+0 -51300-5 0  9999
2 32783  97.7628 240.8011 0012741  36.9741 323.2347 14.79272408982462
HUANJING 1A (HJ-1A)     
1 33320U 08041A   26192.97917187  .00000885  00000+0  11196-3 0  9994
2 33320  97.6692 177.8603 0020476  59.4760 300.8472 14.84044280962088
HUANJING 1B (HJ-1B)     
1 33321U 08041B   26192.95962253  .00000090  00000+0  17168-4 0  9991
2 33321  97.6531 180.9381 0037906 101.3762 259.1715 14.83360454962083
GEOEYE 1                
1 33331U 08042A   26192.88208381  .00000194  00000+0  45394-4 0  9997
2 33331  98.1328 266.5167 0004189 357.9335   2.1849 14.64647721953762
THEOS                   
1 33396U 08049A   26192.98064235 -.00000083  00000+0 -19084-4 0  9990
2 33396  98.5565 249.4576 0001120  88.0171 272.1134 14.20136329921485
COSMO-SKYMED 3          
1 33412U 08054A   26192.90938030  .00001817  00000+0  12514-3 0  9994
2 33412  97.8260  51.8901 0015554 176.8132 183.3197 15.07100844960668
YAOGAN-4                
1 33446U 08061A   26192.79064388  .00000524  00000+0  70566-4 0  9998
2 33446  97.9304 126.1200 0014141 356.8937   3.2187 14.83247486949312
GOSAT (IBUKI)           
1 33492U 09002A   26192.82030937 -.00000054  00000+0 -97420-6 0  9992
2 33492  98.0913 303.5970 0001240  92.1118 268.0228 14.67536213935079
DEIMOS-1                
1 35681U 09041A   26192.87518994  .00000678  00000+0  10718-3 0  9998
2 35681  97.7426 349.0365 0002732  97.4853 262.6667 14.75263673910526
